start=new Date('2022-08-05T00:00:00.000Z').valueOf();
sats=[{"MEAN_MOTION":"14.98338017","ARG_OF_PERICENTER":"255.9568","EPOCH":"2022-08-04T19:47:49.914528","MEAN_ANOMALY":"104.1235","TIME_SYSTEM":"UTC","SEMIMAJOR_AXIS":"6950.168","RCS_SIZE":"LARGE","GP_ID":"209591662","OBJECT_ID":"2021-082C","REF_FRAME":"TEME","INCLINATION":"70.0000","CLASSIFICATION_TYPE":"U","OBJECT_TYPE":"PAYLOAD","BSTAR":"0.00011660000000","FILE":"3529274","TLE_LINE1":"1 49132U 21082C   22216.82488327  .00001299  00000-0  11660-3 0  9995","PERIOD":"96.106","ELEMENT_SET_NO":"999","RA_OF_ASC_NODE":"4.6360","OBJECT_NAME":"STARLINK-3090","PERIAPSIS":"569.803","REV_AT_EPOCH":"4932","COUNTRY_CODE":"US","LAUNCH_DATE":"2021-09-14","ECCENTRICITY":"0.00032080","SITE":"AFWTR","MEAN_ELEMENT_THEORY":"SGP4","TLE_LINE2":"2 49132  70.0000   4.6360 0003208 255.9568 104.1235 14.98338017 49328","MEAN_MOTION_DDOT":"0.0000000000000","CENTER_NAME":"EARTH","EPHEMERIS_TYPE":"0","DECAY_DATE":null,"APOAPSIS":"574.263","MEAN_MOTION_DOT":"0.00001299","NORAD_CAT_ID":"49132"},{"NORAD_CAT_ID":"49133","CENTER_NAME":"EARTH","EPHEMERIS_TYPE":"0","APOAPSIS":"574.299","DECAY_DATE":null,"MEAN_MOTION_DOT":"-0.00000224","MEAN_MOTION_DDOT":"0.0000000000000","LAUNCH_DATE":"2021-09-14","ECCENTRICITY":"0.00032340","SITE":"AFWTR","MEAN_ELEMENT_THEORY":"SGP4","TLE_LINE2":"2 49133  70.0006   4.6614 0003234 250.6422 109.4388 14.98332043 49327","OBJECT_NAME":"STARLINK-3077","PERIAPSIS":"569.804","REV_AT_EPOCH":"4932","COUNTRY_CODE":"US","RA_OF_ASC_NODE":"4.6614","ELEMENT_SET_NO":"999","FILE":"3529274","TLE_LINE1":"1 49133U 21082D   22216.82012601 -.00000224  00000-0 -10940-4 0  9994","PERIOD":"96.107","INCLINATION":"70.0006","CLASSIFICATION_TYPE":"U","OBJECT_TYPE":"PAYLOAD","BSTAR":"-0.00001094000000","REF_FRAME":"TEME","OBJECT_ID":"2021-082D","RCS_SIZE":"LARGE","GP_ID":"209591412","MEAN_ANOMALY":"109.4388","EPOCH":"2022-08-04T19:40:58.887264","TIME_SYSTEM":"UTC","SEMIMAJOR_AXIS":"6950.187","MEAN_MOTION":"14.98332043","ARG_OF_PERICENTER":"250.6422"},{"ARG_OF_PERICENTER":"259.1660","MEAN_MOTION":"14.98330330","TIME_SYSTEM":"UTC","SEMIMAJOR_AXIS":"6950.192","MEAN_ANOMALY":"100.9146","EPOCH":"2022-08-04T19:34:06.724704","RCS_SIZE":"LARGE","GP_ID":"209590161","OBJECT_TYPE":"PAYLOAD","BSTAR":"-0.00006093400000","INCLINATION":"70.0017","CLASSIFICATION_TYPE":"U","OBJECT_ID":"2021-082E","REF_FRAME":"TEME","ELEMENT_SET_NO":"999","PERIOD":"96.107","FILE":"3529274","TLE_LINE1":"1 49134U 21082E   22216.81535561 -.00000820  00000-0 -60934-4 0  9999","PERIAPSIS":"569.877","COUNTRY_CODE":"US","REV_AT_EPOCH":"5052","OBJECT_NAME":"STARLINK-3078","RA_OF_ASC_NODE":"4.6741","MEAN_MOTION_DDOT":"0.0000000000000","MEAN_ELEMENT_THEORY":"SGP4","TLE_LINE2":"2 49134  70.0017   4.6741 0003136 259.1660 100.9146 14.98330330 50529","LAUNCH_DATE":"2021-09-14","ECCENTRICITY":"0.00031360","SITE":"AFWTR","NORAD_CAT_ID":"49134","APOAPSIS":"574.236","DECAY_DATE":null,"MEAN_MOTION_DOT":"-0.00000820","CENTER_NAME":"EARTH","EPHEMERIS_TYPE":"0"},{"GP_ID":"209567479","RCS_SIZE":"LARGE","BSTAR":"0.00010163000000","OBJECT_TYPE":"PAYLOAD","INCLINATION":"69.9992","CLASSIFICATION_TYPE":"U","OBJECT_ID":"2021-082F","REF_FRAME":"TEME","ARG_OF_PERICENTER":"258.8705","MEAN_MOTION":"14.96719969","SEMIMAJOR_AXIS":"6955.176","TIME_SYSTEM":"UTC","EPOCH":"2022-08-04T18:55:03.439200","MEAN_ANOMALY":"101.2088","MEAN_MOTION_DDOT":"0.0000000000000","TLE_LINE2":"2 49135  69.9992 324.3285 0003246 258.8705 101.2088 14.96719969 50326","MEAN_ELEMENT_THEORY":"SGP4","SITE":"AFWTR","ECCENTRICITY":"0.00032460","LAUNCH_DATE":"2021-09-14","NORAD_CAT_ID":"49135","MEAN_MOTION_DOT":"0.00001072","DECAY_DATE":null,"APOAPSIS":"579.299","EPHEMERIS_TYPE":"0","CENTER_NAME":"EARTH","ELEMENT_SET_NO":"999","PERIOD":"96.210","TLE_LINE1":"1 49135U 21082F   22216.78823425  .00001072  00000-0  10163-3 0  9991","FILE":"3529236","REV_AT_EPOCH":"5032","COUNTRY_CODE":"US","PERIAPSIS":"574.784","OBJECT_NAME":"STARLINK-3073","RA_OF_ASC_NODE":"324.3285"},{"INCLINATION":"70.0018","CLASSIFICATION_TYPE":"U","BSTAR":"-0.00001408600000","OBJECT_TYPE":"PAYLOAD","REF_FRAME":"TEME","OBJECT_ID":"2021-082G","GP_ID":"209566981","RCS_SIZE":"LARGE","MEAN_ANOMALY":"109.2914","EPOCH":"2022-08-04T18:11:36.204288","SEMIMAJOR_AXIS":"6955.208","TIME_SYSTEM":"UTC","MEAN_MOTION":"14.96709703","ARG_OF_PERICENTER":"250.7927","NORAD_CAT_ID":"49136","EPHEMERIS_TYPE":"0","CENTER_NAME":"EARTH","MEAN_MOTION_DOT":"-0.00000253","APOAPSIS":"579.114","DECAY_DATE":null,"MEAN_MOTION_DDOT":"0.0000000000000","SITE":"AFWTR","ECCENTRICITY":"0.00029340","LAUNCH_DATE":"2021-09-14","TLE_LINE2":"2 49136  70.0018 344.6592 0002934 250.7927 109.2914 14.96709703 49829","MEAN_ELEMENT_THEORY":"SGP4","OBJECT_NAME":"STARLINK-3084","REV_AT_EPOCH":"4982","COUNTRY_CODE":"US","PERIAPSIS":"575.032","RA_OF_ASC_NODE":"344.6592","ELEMENT_SET_NO":"999","TLE_LINE1":"1 49136U 21082G   22216.75805792 -.00000253  00000-0 -14086-4 0  9997","FILE":"3529236","PERIOD":"96.211"},{"MEAN_MOTION":"14.96728681","ARG_OF_PERICENTER":"253.0294","MEAN_ANOMALY":"107.0511","EPOCH":"2022-08-04T18:06:46.764288","SEMIMAJOR_AXIS":"6955.149","TIME_SYSTEM":"UTC","RCS_SIZE":"LARGE","GP_ID":"209567469","OBJECT_ID":"2021-082H","REF_FRAME":"TEME","INCLINATION":"70.0015","CLASSIFICATION_TYPE":"U","OBJECT_TYPE":"PAYLOAD","BSTAR":"0.00029703000000","FILE":"3529236","TLE_LINE1":"1 49137U 21082H   22216.75470792  .00003311  00000-0  29703-3 0  9993","PERIOD":"96.210","ELEMENT_SET_NO":"999","RA_OF_ASC_NODE":"344.6861","OBJECT_NAME":"STARLINK-3055","PERIAPSIS":"574.773","COUNTRY_CODE":"US","REV_AT_EPOCH":"4981","ECCENTRICITY":"0.00032220","LAUNCH_DATE":"2021-09-14","SITE":"AFWTR","MEAN_ELEMENT_THEORY":"SGP4","TLE_LINE2":"2 49137  70.0015 344.6861 0003222 253.0294 107.0511 14.96728681 49814","MEAN_MOTION_DDOT":"0.0000000000000","CENTER_NAME":"EARTH","EPHEMERIS_TYPE":"0","APOAPSIS":"579.255","DECAY_DATE":null,"MEAN_MOTION_DOT":"0.00003311","NORAD_CAT_ID":"49137"},{"OBJECT_ID":"2021-082J","REF_FRAME":"TEME","INCLINATION":"70.0020","CLASSIFICATION_TYPE":"U","OBJECT_TYPE":"PAYLOAD","BSTAR":"-0.00005185200000","RCS_SIZE":"LARGE","GP_ID":"209590661","EPOCH":"2022-08-04T19:27:14.903424","MEAN_ANOMALY":"112.2202","SEMIMAJOR_AXIS":"6950.203","TIME_SYSTEM":"UTC","MEAN_MOTION":"14.98326739","ARG_OF_PERICENTER":"247.8612","CENTER_NAME":"EARTH","EPHEMERIS_TYPE":"0","APOAPSIS":"574.331","DECAY_DATE":null,"MEAN_MOTION_DOT":"-0.00000712","NORAD_CAT_ID":"49138","LAUNCH_DATE":"2021-09-14","ECCENTRICITY":"0.00032560","SITE":"AFWTR","MEAN_ELEMENT_THEORY":"SGP4","TLE_LINE2":"2 49138  70.0020   4.6852 0003256 247.8612 112.2202 14.98326739 49327","MEAN_MOTION_DDOT":"0.0000000000000","RA_OF_ASC_NODE":"4.6852","OBJECT_NAME":"STARLINK-3058","PERIAPSIS":"569.805","COUNTRY_CODE":"US","REV_AT_EPOCH":"4932","FILE":"3529274","TLE_LINE1":"1 49138U 21082J   22216.81058916 -.00000712  00000-0 -51852-4 0  9996","PERIOD":"96.107","ELEMENT_SET_NO":"999"},{"ELEMENT_SET_NO":"999","FILE":"3529060","TLE_LINE1":"1 49139U 21082K   22216.51114390  .00000833  00000-0  80811-4 0  9992","PERIOD":"96.211","OBJECT_NAME":"STARLINK-3057","PERIAPSIS":"574.865","COUNTRY_CODE":"US","REV_AT_EPOCH":"5027","RA_OF_ASC_NODE":"325.0262","MEAN_MOTION_DDOT":"0.0000000000000","ECCENTRICITY":"0.00031490","LAUNCH_DATE":"2021-09-14","SITE":"AFWTR","MEAN_ELEMENT_THEORY":"SGP4","TLE_LINE2":"2 49139  69.9996 325.0262 0003149 266.2856  93.7943 14.96715582 50275","NORAD_CAT_ID":"49139","CENTER_NAME":"EARTH","EPHEMERIS_TYPE":"0","APOAPSIS":"579.245","DECAY_DATE":null,"MEAN_MOTION_DOT":"0.00000833","MEAN_MOTION":"14.96715582","ARG_OF_PERICENTER":"266.2856","MEAN_ANOMALY":"93.7943","EPOCH":"2022-08-04T12:16:02.832960","TIME_SYSTEM":"UTC","SEMIMAJOR_AXIS":"6955.190","RCS_SIZE":"LARGE","GP_ID":"209560707","CLASSIFICATION_TYPE":"U","INCLINATION":"69.9996","OBJECT_TYPE":"PAYLOAD","BSTAR":"0.00008081100000","REF_FRAME":"TEME","OBJECT_ID":"2021-082K"},{"ELEMENT_SET_NO":"999","PERIOD":"96.210","FILE":"3529274","TLE_LINE1":"1 49140U 21082L   22216.70190819 -.00000406  00000-0 -27458-4 0  9991","PERIAPSIS":"574.802","COUNTRY_CODE":"US","REV_AT_EPOCH":"5030","OBJECT_NAME":"STARLINK-3118","RA_OF_ASC_NODE":"324.5464","MEAN_MOTION_DDOT":"0.0000000000000","MEAN_ELEMENT_THEORY":"SGP4","TLE_LINE2":"2 49140  69.9999 324.5464 0003221 260.9373  99.1421 14.96719685 50307","LAUNCH_DATE":"2021-09-14","ECCENTRICITY":"0.00032210","SITE":"AFWTR","NORAD_CAT_ID":"49140","DECAY_DATE":null,"APOAPSIS":"579.282","MEAN_MOTION_DOT":"-0.00000406","CENTER_NAME":"EARTH","EPHEMERIS_TYPE":"0","ARG_OF_PERICENTER":"260.9373","MEAN_MOTION":"14.96719685","TIME_SYSTEM":"UTC","SEMIMAJOR_AXIS":"6955.177","EPOCH":"2022-08-04T16:50:44.867616","MEAN_ANOMALY":"99.1421","RCS_SIZE":"LARGE","GP_ID":"209591663","OBJECT_TYPE":"PAYLOAD","BSTAR":"-0.00002745800000","INCLINATION":"69.9999","CLASSIFICATION_TYPE":"U","REF_FRAME":"TEME","OBJECT_ID":"2021-082L"},{"GP_ID":"209561709","RCS_SIZE":"LARGE","OBJECT_ID":"2021-082M","REF_FRAME":"TEME","BSTAR":"0.00012556000000","OBJECT_TYPE":"PAYLOAD","CLASSIFICATION_TYPE":"U","INCLINATION":"70.0000","ARG_OF_PERICENTER":"248.6652","MEAN_MOTION":"14.98333093","TIME_SYSTEM":"UTC","SEMIMAJOR_AXIS":"6950.183","MEAN_ANOMALY":"111.4177","EPOCH":"2022-08-04T12:55:50.194560","TLE_LINE2":"2 49141  70.0000   5.3579 0003098 248.6652 111.4177 14.98333093 50482","MEAN_ELEMENT_THEORY":"SGP4","SITE":"AFWTR","ECCENTRICITY":"0.00030980","LAUNCH_DATE":"2021-09-14","MEAN_MOTION_DDOT":"0.0000000000000","MEAN_MOTION_DOT":"0.00001406","DECAY_DATE":null,"APOAPSIS":"574.201","EPHEMERIS_TYPE":"0","CENTER_NAME":"EARTH","NORAD_CAT_ID":"49141","PERIOD":"96.107","TLE_LINE1":"1 49141U 21082M   22216.53877540  .00001406  00000-0  12556-3 0  9997","FILE":"3529060","ELEMENT_SET_NO":"999","RA_OF_ASC_NODE":"5.3579","COUNTRY_CODE":"US","REV_AT_EPOCH":"5048","PERIAPSIS":"569.895","OBJECT_NAME":"STARLINK-3093"}];
